[{"OBJECT_NAME":"STARLINK-6303","OBJECT_ID":"2023-061V","EPOCH":"2026-03-09T22:00:01.999584","MEAN_MOTION":15.13106112,"ECCENTRICITY":0.000138,"INCLINATION":43.0014,"RA_OF_ASC_NODE":195.3943,"ARG_OF_PERICENTER":290.747,"MEAN_ANOMALY":245.0082,"EPHEMERIS_TYPE":0,"CLASSIFICATION_TYPE":"U","NORAD_CAT_ID":56393,"ELEMENT_SET_NO":999,"REV_AT_EPOCH":572,"BSTAR":0.0031053105,"MEAN_MOTION_DOT":0.00056179,"MEAN_MOTION_DDOT":0},{"OBJECT_NAME":"FREGAT DEB","OBJECT_ID":"2011-037CH","EPOCH":"2026-03-09T16:32:56.542848","MEAN_MOTION":13.49190097,"ECCENTRICITY":0.09581895,"INCLINATION":51.3975,"RA_OF_ASC_NODE":253.381,"ARG_OF_PERICENTER":179.7939,"MEAN_ANOMALY":180.3545,"EPHEMERIS_TYPE":0,"CLASSIFICATION_TYPE":"U","NORAD_CAT_ID":45847,"ELEMENT_SET_NO":999,"REV_AT_EPOCH":24863,"BSTAR":0.010446039,"MEAN_MOTION_DOT":0.00171007,"MEAN_MOTION_DDOT":0}]
